[{"OBJECT_NAME":"GAOFEN-2","OBJECT_ID":"2014-049A","EPOCH":"2026-03-09T23:35:46.910976","MEAN_MOTION":14.80770566,"ECCENTRICITY":0.00070783,"INCLINATION":98.0218,"RA_OF_ASC_NODE":133.2442,"ARG_OF_PERICENTER":184.3502,"MEAN_ANOMALY":175.765,"EPHEMERIS_TYPE":0,"CLASSIFICATION_TYPE":"U","NORAD_CAT_ID":40118,"ELEMENT_SET_NO":999,"REV_AT_EPOCH":62455,"BSTAR":6.8905409e-5,"MEAN_MOTION_DOT":4.77e-6,"MEAN_MOTION_DDOT":0},{"OBJECT_NAME":"DELTA 1 DEB","OBJECT_ID":"1966-008E","EPOCH":"2026-03-09T13:31:28.940160","MEAN_MOTION":14.71562151,"ECCENTRICITY":0.0045126,"INCLINATION":97.8603,"RA_OF_ASC_NODE":188.0099,"ARG_OF_PERICENTER":266.9066,"MEAN_ANOMALY":92.6977,"EPHEMERIS_TYPE":0,"CLASSIFICATION_TYPE":"U","NORAD_CAT_ID":2154,"ELEMENT_SET_NO":999,"REV_AT_EPOCH":16436,"BSTAR":0.00029521,"MEAN_MOTION_DOT":1.813e-5,"MEAN_MOTION_DDOT":0}]
